CCSDS_OMM_VERS = 2.0
CREATION_DATE  = 
ORIGINATOR     = 

OBJECT_NAME    = STARLINK-37026
OBJECT_ID      = 2026-042G
CENTER_NAME    = EARTH
REF_FRAME      = TEME
TIME_SYSTEM    = UTC
MEAN_ELEMENT_THEORY = SGP/SGP4

EPOCH          = 2026-03-31T04:04:28.050240
MEAN_MOTION    = 15.75563429
ECCENTRICITY   = .0000417
INCLINATION    = 53.1561
RA_OF_ASC_NODE = 87.6175
ARG_OF_PERICENTER = 253.4354
MEAN_ANOMALY   = 106.6620

EPHEMERIS_TYPE = 0
CLASSIFICATION_TYPE = U
NORAD_CAT_ID   = 68075
ELEMENT_SET_NO = 999
REV_AT_EPOCH   = 547
BSTAR          = .32499E-2
MEAN_MOTION_DOT = .538196E-2
MEAN_MOTION_DDOT = 0

CCSDS_OMM_VERS = 2.0
CREATION_DATE  = 
ORIGINATOR     = 

OBJECT_NAME    = STARLINK-37023
OBJECT_ID      = 2026-042H
CENTER_NAME    = EARTH
REF_FRAME      = TEME
TIME_SYSTEM    = UTC
MEAN_ELEMENT_THEORY = SGP/SGP4

EPOCH          = 2026-03-31T03:56:59.305056
MEAN_MOTION    = 15.75309666
ECCENTRICITY   = .0001227
INCLINATION    = 53.1570
RA_OF_ASC_NODE = 87.5820
ARG_OF_PERICENTER = 117.4327
MEAN_ANOMALY   = 242.6818

EPHEMERIS_TYPE = 0
CLASSIFICATION_TYPE = U
NORAD_CAT_ID   = 68076
ELEMENT_SET_NO = 999
REV_AT_EPOCH   = 547
BSTAR          = .12601E-2
MEAN_MOTION_DOT = .197714E-2
MEAN_MOTION_DDOT = 0

CCSDS_OMM_VERS = 2.0
CREATION_DATE  = 
ORIGINATOR     = 

OBJECT_NAME    = STARLINK-37036
OBJECT_ID      = 2026-042J
CENTER_NAME    = EARTH
REF_FRAME      = TEME
TIME_SYSTEM    = UTC
MEAN_ELEMENT_THEORY = SGP/SGP4

EPOCH          = 2026-03-31T03:57:27.852480
MEAN_MOTION    = 15.75286679
ECCENTRICITY   = .0000825
INCLINATION    = 53.1568
RA_OF_ASC_NODE = 87.5832
ARG_OF_PERICENTER = 99.2811
MEAN_ANOMALY   = 260.8302

EPHEMERIS_TYPE = 0
CLASSIFICATION_TYPE = U
NORAD_CAT_ID   = 68077
ELEMENT_SET_NO = 999
REV_AT_EPOCH   = 547
BSTAR          = .24401E-2
MEAN_MOTION_DOT = .392094E-2
MEAN_MOTION_DDOT = 0

CCSDS_OMM_VERS = 2.0
CREATION_DATE  = 
ORIGINATOR     = 

OBJECT_NAME    = STARLINK-36973
OBJECT_ID      = 2026-042K
CENTER_NAME    = EARTH
REF_FRAME      = TEME
TIME_SYSTEM    = UTC
MEAN_ELEMENT_THEORY = SGP/SGP4

EPOCH          = 2026-03-31T03:18:15.051744
MEAN_MOTION    = 15.75227502
ECCENTRICITY   = .0000996
INCLINATION    = 53.1581
RA_OF_ASC_NODE = 87.4024
ARG_OF_PERICENTER = 47.8469
MEAN_ANOMALY   = 312.2635

EPHEMERIS_TYPE = 0
CLASSIFICATION_TYPE = U
NORAD_CAT_ID   = 68078
ELEMENT_SET_NO = 999
REV_AT_EPOCH   = 547
BSTAR          = .1837E-2
MEAN_MOTION_DOT = .290698E-2
MEAN_MOTION_DDOT = 0

CCSDS_OMM_VERS = 2.0
CREATION_DATE  = 
ORIGINATOR     = 

OBJECT_NAME    = STARLINK-37063
OBJECT_ID      = 2026-042L
CENTER_NAME    = EARTH
REF_FRAME      = TEME
TIME_SYSTEM    = UTC
MEAN_ELEMENT_THEORY = SGP/SGP4

EPOCH          = 2026-03-31T04:25:05.852928
MEAN_MOTION    = 15.80946275
ECCENTRICITY   = .0001502
INCLINATION    = 53.1565
RA_OF_ASC_NODE = 86.9757
ARG_OF_PERICENTER = 16.5023
MEAN_ANOMALY   = 343.6048

EPHEMERIS_TYPE = 0
CLASSIFICATION_TYPE = U
NORAD_CAT_ID   = 68079
ELEMENT_SET_NO = 999
REV_AT_EPOCH   = 548
BSTAR          = .29358E-2
MEAN_MOTION_DOT = .62478E-2
MEAN_MOTION_DDOT = 0

CCSDS_OMM_VERS = 2.0
CREATION_DATE  = 
ORIGINATOR     = 

OBJECT_NAME    = STARLINK-37051
OBJECT_ID      = 2026-042M
CENTER_NAME    = EARTH
REF_FRAME      = TEME
TIME_SYSTEM    = UTC
MEAN_ELEMENT_THEORY = SGP/SGP4

EPOCH          = 2026-03-31T04:56:08.637792
MEAN_MOTION    = 15.75289161
ECCENTRICITY   = .0001166
INCLINATION    = 53.1584
RA_OF_ASC_NODE = 87.1174
ARG_OF_PERICENTER = 96.1522
MEAN_ANOMALY   = 263.9631

EPHEMERIS_TYPE = 0
CLASSIFICATION_TYPE = U
NORAD_CAT_ID   = 68080
ELEMENT_SET_NO = 999
REV_AT_EPOCH   = 548
BSTAR          = .99088E-3
MEAN_MOTION_DOT = .15439E-2
MEAN_MOTION_DDOT = 0

CCSDS_OMM_VERS = 2.0
CREATION_DATE  = 
ORIGINATOR     = 

OBJECT_NAME    = STARLINK-37066
OBJECT_ID      = 2026-042N
CENTER_NAME    = EARTH
REF_FRAME      = TEME
TIME_SYSTEM    = UTC
MEAN_ELEMENT_THEORY = SGP/SGP4

EPOCH          = 2026-03-31T03:43:54.890688
MEAN_MOTION    = 15.75422324
ECCENTRICITY   = .0001822
INCLINATION    = 53.1590
RA_OF_ASC_NODE = 87.5225
ARG_OF_PERICENTER = 172.3247
MEAN_ANOMALY   = 187.7802

EPHEMERIS_TYPE = 0
CLASSIFICATION_TYPE = U
NORAD_CAT_ID   = 68081
ELEMENT_SET_NO = 999
REV_AT_EPOCH   = 547
BSTAR          = .31062E-2
MEAN_MOTION_DOT = .509355E-2
MEAN_MOTION_DDOT = 0

CCSDS_OMM_VERS = 2.0
CREATION_DATE  = 
ORIGINATOR     = 

OBJECT_NAME    = STARLINK-37054
OBJECT_ID      = 2026-042P
CENTER_NAME    = EARTH
REF_FRAME      = TEME
TIME_SYSTEM    = UTC
MEAN_ELEMENT_THEORY = SGP/SGP4

EPOCH          = 2026-03-31T04:20:45.856320
MEAN_MOTION    = 15.81148947
ECCENTRICITY   = .0006518
INCLINATION    = 53.1571
RA_OF_ASC_NODE = 86.9553
ARG_OF_PERICENTER = 174.7307
MEAN_ANOMALY   = 185.3785

EPHEMERIS_TYPE = 0
CLASSIFICATION_TYPE = U
NORAD_CAT_ID   = 68082
ELEMENT_SET_NO = 999
REV_AT_EPOCH   = 548
BSTAR          = .22768E-2
MEAN_MOTION_DOT = .480957E-2
MEAN_MOTION_DDOT = 0

CCSDS_OMM_VERS = 2.0
CREATION_DATE  = 
ORIGINATOR     = 

OBJECT_NAME    = STARLINK-37065
OBJECT_ID      = 2026-042Q
CENTER_NAME    = EARTH
REF_FRAME      = TEME
TIME_SYSTEM    = UTC
MEAN_ELEMENT_THEORY = SGP/SGP4

EPOCH          = 2026-03-30T23:16:22.149984
MEAN_MOTION    = 15.75373865
ECCENTRICITY   = .0002057
INCLINATION    = 53.1580
RA_OF_ASC_NODE = 88.4984
ARG_OF_PERICENTER = 88.3376
MEAN_ANOMALY   = 271.7880

EPHEMERIS_TYPE = 0
CLASSIFICATION_TYPE = U
NORAD_CAT_ID   = 68083
ELEMENT_SET_NO = 999
REV_AT_EPOCH   = 544
BSTAR          = .2029E-2
MEAN_MOTION_DOT = .324508E-2
MEAN_MOTION_DDOT = 0

CCSDS_OMM_VERS = 2.0
CREATION_DATE  = 
ORIGINATOR     = 

OBJECT_NAME    = STARLINK-37037
OBJECT_ID      = 2026-042R
CENTER_NAME    = EARTH
REF_FRAME      = TEME
TIME_SYSTEM    = UTC
MEAN_ELEMENT_THEORY = SGP/SGP4

EPOCH          = 2026-03-31T04:55:40.434240
MEAN_MOTION    = 15.75250184
ECCENTRICITY   = .0001276
INCLINATION    = 53.1579
RA_OF_ASC_NODE = 87.1162
ARG_OF_PERICENTER = 20.0710
MEAN_ANOMALY   = 340.0360

EPHEMERIS_TYPE = 0
CLASSIFICATION_TYPE = U
NORAD_CAT_ID   = 68084
ELEMENT_SET_NO = 999
REV_AT_EPOCH   = 548
BSTAR          = .14844E-2
MEAN_MOTION_DOT = .2334E-2
MEAN_MOTION_DDOT = 0

CCSDS_OMM_VERS = 2.0
CREATION_DATE  = 
ORIGINATOR     = 

OBJECT_NAME    = STARLINK-37068
OBJECT_ID      = 2026-042S
CENTER_NAME    = EARTH
REF_FRAME      = TEME
TIME_SYSTEM    = UTC
MEAN_ELEMENT_THEORY = SGP/SGP4

EPOCH          = 2026-03-31T00:00:01.999296
MEAN_MOTION    = 15.75196938
ECCENTRICITY   = .0001063
INCLINATION    = 53.1588
RA_OF_ASC_NODE = 87.9798
ARG_OF_PERICENTER = 125.7516
MEAN_ANOMALY   = 224.8415

EPHEMERIS_TYPE = 0
CLASSIFICATION_TYPE = U
NORAD_CAT_ID   = 68085
ELEMENT_SET_NO = 999
REV_AT_EPOCH   = 547
BSTAR          = .27136E-3
MEAN_MOTION_DOT = .41082E-3
MEAN_MOTION_DDOT = 0

CCSDS_OMM_VERS = 2.0
CREATION_DATE  = 
ORIGINATOR     = 

OBJECT_NAME    = STARLINK-37067
OBJECT_ID      = 2026-042T
CENTER_NAME    = EARTH
REF_FRAME      = TEME
TIME_SYSTEM    = UTC
MEAN_ELEMENT_THEORY = SGP/SGP4

EPOCH          = 2026-03-31T04:16:26.869728
MEAN_MOTION    = 15.81144332
ECCENTRICITY   = .0004573
INCLINATION    = 53.1575
RA_OF_ASC_NODE = 86.9353
ARG_OF_PERICENTER = 178.2486
MEAN_ANOMALY   = 181.8554

EPHEMERIS_TYPE = 0
CLASSIFICATION_TYPE = U
NORAD_CAT_ID   = 68086
ELEMENT_SET_NO = 999
REV_AT_EPOCH   = 548
BSTAR          = .26123E-2
MEAN_MOTION_DOT = .556441E-2
MEAN_MOTION_DDOT = 0

