STARLINK-37026          
1 68075U 26042G   26090.16976910  .00538196  00000+0  32499-2 0  9996
2 68075  53.1561  87.6175 0000417 253.4354 106.6620 15.75563429  5475
STARLINK-37023          
1 68076U 26042H   26090.16457529  .00197714  00000+0  12601-2 0  9997
2 68076  53.1570  87.5820 0001227 117.4327 242.6818 15.75309666  5472
STARLINK-37036          
1 68077U 26042J   26090.16490570  .00392094  00000+0  24401-2 0  9990
2 68077  53.1568  87.5832 0000825  99.2811 260.8302 15.75286679  5479
STARLINK-36973          
1 68078U 26042K   26090.13767421  .00290698  00000+0  18370-2 0  9995
2 68078  53.1581  87.4024 0000996  47.8469 312.2635 15.75227502  5475
STARLINK-37063          
1 68079U 26042L   26090.18409552  .00624780  00000+0  29358-2 0  9990
2 68079  53.1565  86.9757 0001502  16.5023 343.6048 15.80946275  5486
STARLINK-37051          
1 68080U 26042M   26090.20565553  .00154390  00000+0  99088-3 0  9992
2 68080  53.1584  87.1174 0001166  96.1522 263.9631 15.75289161  5489
STARLINK-37066          
1 68081U 26042N   26090.15549642  .00509355  00000+0  31062-2 0  9990
2 68081  53.1590  87.5225 0001822 172.3247 187.7802 15.75422324  5470
STARLINK-37054          
1 68082U 26042P   26090.18108630  .00480957  00000+0  22768-2 0  9991
2 68082  53.1571  86.9553 0006518 174.7307 185.3785 15.81148947  5485
STARLINK-37065          
1 68083U 26042Q   26089.96970081  .00324508  00000+0  20290-2 0  9990
2 68083  53.1580  88.4984 0002057  88.3376 271.7880 15.75373865  5445
STARLINK-37037          
1 68084U 26042R   26090.20532910  .00233400  00000+0  14844-2 0  9993
2 68084  53.1579  87.1162 0001276  20.0710 340.0360 15.75250184  5480
STARLINK-37068          
1 68085U 26042S   26090.00002314  .00041082  00000+0  27136-3 0  9994
2 68085  53.1588  87.9798 0001063 125.7516 224.8415 15.75196938  5470
STARLINK-37067          
1 68086U 26042T   26090.17808877  .00556441  00000+0  26123-2 0  9995
2 68086  53.1575  86.9353 0004573 178.2486 181.8554 15.81144332  5486
